ONEWEB-0431             
1 51630U 22012J   26035.11926976  .00000121  00000+0  31014-3 0  9994
2 51630  87.8761  62.7781 0001787 113.7676 246.3639 13.10375678191914
ONEWEB-0434             
1 51631U 22012K   26035.09629736 -.00000579  00000+0 -16938-2 0  9992
2 51631  87.8749  62.8140 0002243  79.5172 280.6208 13.10371362191895
ONEWEB-0435             
1 51632U 22012L   26035.10445642 -.00000544  00000+0 -15942-2 0  9993
2 51632  87.8750  62.8023 0001439  94.2219 265.9073 13.10373639191884
ONEWEB-0436             
1 51633U 22012M   26034.48861511 -.00000048  00000+0 -15697-3 0  9998
2 51633  87.9103  32.3992 0001634  92.1377 267.9941 13.17648051196076
ONEWEB-0438             
1 51634U 22012N   26035.08786538 -.00000433  00000+0 -12772-2 0  9999
2 51634  87.8748  62.8068 0001996  90.2405 269.8951 13.10369920191913
ONEWEB-0439             
1 51635U 22012P   26035.09118272 -.00000502  00000+0 -14737-2 0  9995
2 51635  87.8751  62.7948 0001801  92.8953 267.2380 13.10370538191897
ONEWEB-0442             
1 51636U 22012Q   26035.24040997  .00000795  00000+0  20146-2 0  9994
2 51636  87.9098  32.2919 0002452  82.9615 277.1795 13.17649947196166
ONEWEB-0443             
1 51637U 22012R   26034.50042424  .00000019  00000+0  15695-4 0  9994
2 51637  87.9088  32.4425 0001899  78.0147 282.1197 13.17650966196110
ONEWEB-0444             
1 51638U 22012S   26035.08123169 -.00000036  00000+0 -14041-3 0  9999
2 51638  87.8748  62.7952 0001796  91.5728 268.5605 13.10369438191903
ONEWEB-0445             
1 51639U 22012T   26035.33186808 -.00000666  00000+0 -19442-2 0  9995
2 51639  87.8766  62.7207 0001971 100.5035 259.6315 13.10372487191945
ONEWEB-0446             
1 51640U 22012U   26035.07957343  .00000017  00000+0  12499-4 0  9993
2 51640  87.8748  62.8123 0001963  97.7947 262.3403 13.10369287191892
ONEWEB-0448             
1 51641U 22012V   26035.31362082 -.00000213  00000+0 -64671-3 0  9999
2 51641  87.8747  62.7642 0001784  93.9529 266.1803 13.10368810191899
ONEWEB-0449             
1 51642U 22012W   26035.31859708 -.00000329  00000+0 -97810-3 0  9995
2 51642  87.8756  62.7387 0002146  83.5555 276.5817 13.10370921191901
ONEWEB-0451             
1 51643U 22012X   26035.24459664  .00000129  00000+0  29957-3 0  9998
2 51643  87.9105  32.2433 0001929  83.9498 276.1854 13.17651913196152
ONEWEB-0452             
1 51644U 22012Y   26035.24292902  .00000069  00000+0  14530-3 0  9993
2 51644  87.9094  32.2937 0001853  78.9080 281.2260 13.17649848196169
ONEWEB-0456             
1 51646U 22012AA  26035.09949696  .00002798  00000+0  79782-2 0  9997
2 51646  87.8768  62.7578 0001596  96.2035 263.9275 13.10359855191914
ONEWEB-0457             
1 51647U 22012AB  26035.07625919  .00000175  00000+0  46471-3 0  9992
2 51647  87.8748  62.8005 0002291  95.9663 264.1725 13.10370123191919
