[{"OBJECT_NAME":"ONEWEB-0431","OBJECT_ID":"2022-012J","EPOCH":"2026-02-04T02:51:44.907264","MEAN_MOTION":13.10375678,"ECCENTRICITY":0.00017872,"INCLINATION":87.8761,"RA_OF_ASC_NODE":62.7781,"ARG_OF_PERICENTER":113.7676,"MEAN_ANOMALY":246.3639,"EPHEMERIS_TYPE":0,"CLASSIFICATION_TYPE":"U","NORAD_CAT_ID":51630,"ELEMENT_SET_NO":999,"REV_AT_EPOCH":19191,"BSTAR":0.00031014488,"MEAN_MOTION_DOT":1.21e-6,"MEAN_MOTION_DDOT":0},{"OBJECT_NAME":"ONEWEB-0434","OBJECT_ID":"2022-012K","EPOCH":"2026-02-04T02:18:40.091904","MEAN_MOTION":13.10371362,"ECCENTRICITY":0.00022439,"INCLINATION":87.8749,"RA_OF_ASC_NODE":62.814,"ARG_OF_PERICENTER":79.5172,"MEAN_ANOMALY":280.6208,"EPHEMERIS_TYPE":0,"CLASSIFICATION_TYPE":"U","NORAD_CAT_ID":51631,"ELEMENT_SET_NO":999,"REV_AT_EPOCH":19189,"BSTAR":-0.001693763,"MEAN_MOTION_DOT":-5.79e-6,"MEAN_MOTION_DDOT":0},{"OBJECT_NAME":"ONEWEB-0435","OBJECT_ID":"2022-012L","EPOCH":"2026-02-04T02:30:25.034688","MEAN_MOTION":13.10373639,"ECCENTRICITY":0.00014398,"INCLINATION":87.875,"RA_OF_ASC_NODE":62.8023,"ARG_OF_PERICENTER":94.2219,"MEAN_ANOMALY":265.9073,"EPHEMERIS_TYPE":0,"CLASSIFICATION_TYPE":"U","NORAD_CAT_ID":51632,"ELEMENT_SET_NO":999,"REV_AT_EPOCH":19188,"BSTAR":-0.0015941613,"MEAN_MOTION_DOT":-5.44e-6,"MEAN_MOTION_DDOT":0},{"OBJECT_NAME":"ONEWEB-0436","OBJECT_ID":"2022-012M","EPOCH":"2026-02-03T11:43:36.345504","MEAN_MOTION":13.17648051,"ECCENTRICITY":0.00016342,"INCLINATION":87.9103,"RA_OF_ASC_NODE":32.3992,"ARG_OF_PERICENTER":92.1377,"MEAN_ANOMALY":267.9941,"EPHEMERIS_TYPE":0,"CLASSIFICATION_TYPE":"U","NORAD_CAT_ID":51633,"ELEMENT_SET_NO":999,"REV_AT_EPOCH":19607,"BSTAR":-0.00015697411,"MEAN_MOTION_DOT":-4.8e-7,"MEAN_MOTION_DDOT":0},{"OBJECT_NAME":"ONEWEB-0438","OBJECT_ID":"2022-012N","EPOCH":"2026-02-04T02:06:31.568832","MEAN_MOTION":13.1036992,"ECCENTRICITY":0.00019962,"INCLINATION":87.8748,"RA_OF_ASC_NODE":62.8068,"ARG_OF_PERICENTER":90.2405,"MEAN_ANOMALY":269.8951,"EPHEMERIS_TYPE":0,"CLASSIFICATION_TYPE":"U","NORAD_CAT_ID":51634,"ELEMENT_SET_NO":999,"REV_AT_EPOCH":19191,"BSTAR":-0.0012771531,"MEAN_MOTION_DOT":-4.33e-6,"MEAN_MOTION_DDOT":0},{"OBJECT_NAME":"ONEWEB-0439","OBJECT_ID":"2022-012P","EPOCH":"2026-02-04T02:11:18.187008","MEAN_MOTION":13.10370538,"ECCENTRICITY":0.00018017,"INCLINATION":87.8751,"RA_OF_ASC_NODE":62.7948,"ARG_OF_PERICENTER":92.8953,"MEAN_ANOMALY":267.238,"EPHEMERIS_TYPE":0,"CLASSIFICATION_TYPE":"U","NORAD_CAT_ID":51635,"ELEMENT_SET_NO":999,"REV_AT_EPOCH":19189,"BSTAR":-0.0014736881,"MEAN_MOTION_DOT":-5.02e-6,"MEAN_MOTION_DDOT":0},{"OBJECT_NAME":"ONEWEB-0442","OBJECT_ID":"2022-012Q","EPOCH":"2026-02-04T05:46:11.421408","MEAN_MOTION":13.17649947,"ECCENTRICITY":0.00024525,"INCLINATION":87.9098,"RA_OF_ASC_NODE":32.2919,"ARG_OF_PERICENTER":82.9615,"MEAN_ANOMALY":277.1795,"EPHEMERIS_TYPE":0,"CLASSIFICATION_TYPE":"U","NORAD_CAT_ID":51636,"ELEMENT_SET_NO":999,"REV_AT_EPOCH":19616,"BSTAR":0.0020146121,"MEAN_MOTION_DOT":7.95e-6,"MEAN_MOTION_DDOT":0},{"OBJECT_NAME":"ONEWEB-0443","OBJECT_ID":"2022-012R","EPOCH":"2026-02-03T12:00:36.654336","MEAN_MOTION":13.17650966,"ECCENTRICITY":0.00018993,"INCLINATION":87.9088,"RA_OF_ASC_NODE":32.4425,"ARG_OF_PERICENTER":78.0147,"MEAN_ANOMALY":282.1197,"EPHEMERIS_TYPE":0,"CLASSIFICATION_TYPE":"U","NORAD_CAT_ID":51637,"ELEMENT_SET_NO":999,"REV_AT_EPOCH":19611,"BSTAR":1.5695298e-5,"MEAN_MOTION_DOT":1.9e-7,"MEAN_MOTION_DDOT":0},{"OBJECT_NAME":"ONEWEB-0444","OBJECT_ID":"2022-012S","EPOCH":"2026-02-04T01:56:58.418016","MEAN_MOTION":13.10369438,"ECCENTRICITY":0.00017961,"INCLINATION":87.8748,"RA_OF_ASC_NODE":62.7952,"ARG_OF_PERICENTER":91.5728,"MEAN_ANOMALY":268.5605,"EPHEMERIS_TYPE":0,"CLASSIFICATION_TYPE":"U","NORAD_CAT_ID":51638,"ELEMENT_SET_NO":999,"REV_AT_EPOCH":19190,"BSTAR":-0.00014040587,"MEAN_MOTION_DOT":-3.6e-7,"MEAN_MOTION_DDOT":0},{"OBJECT_NAME":"ONEWEB-0445","OBJECT_ID":"2022-012T","EPOCH":"2026-02-04T07:57:53.402112","MEAN_MOTION":13.10372487,"ECCENTRICITY":0.00019712,"INCLINATION":87.8766,"RA_OF_ASC_NODE":62.7207,"ARG_OF_PERICENTER":100.5035,"MEAN_ANOMALY":259.6315,"EPHEMERIS_TYPE":0,"CLASSIFICATION_TYPE":"U","NORAD_CAT_ID":51639,"ELEMENT_SET_NO":999,"REV_AT_EPOCH":19194,"BSTAR":-0.0019441754,"MEAN_MOTION_DOT":-6.66e-6,"MEAN_MOTION_DDOT":0},{"OBJECT_NAME":"ONEWEB-0446","OBJECT_ID":"2022-012U","EPOCH":"2026-02-04T01:54:35.144352","MEAN_MOTION":13.10369287,"ECCENTRICITY":0.00019633,"INCLINATION":87.8748,"RA_OF_ASC_NODE":62.8123,"ARG_OF_PERICENTER":97.7947,"MEAN_ANOMALY":262.3403,"EPHEMERIS_TYPE":0,"CLASSIFICATION_TYPE":"U","NORAD_CAT_ID":51640,"ELEMENT_SET_NO":999,"REV_AT_EPOCH":19189,"BSTAR":1.2499438e-5,"MEAN_MOTION_DOT":1.7e-7,"MEAN_MOTION_DDOT":0},{"OBJECT_NAME":"ONEWEB-0448","OBJECT_ID":"2022-012V","EPOCH":"2026-02-04T07:31:36.838848","MEAN_MOTION":13.1036881,"ECCENTRICITY":0.00017842,"INCLINATION":87.8747,"RA_OF_ASC_NODE":62.7642,"ARG_OF_PERICENTER":93.9529,"MEAN_ANOMALY":266.1803,"EPHEMERIS_TYPE":0,"CLASSIFICATION_TYPE":"U","NORAD_CAT_ID":51641,"ELEMENT_SET_NO":999,"REV_AT_EPOCH":19189,"BSTAR":-0.00064671016,"MEAN_MOTION_DOT":-2.13e-6,"MEAN_MOTION_DDOT":0},{"OBJECT_NAME":"ONEWEB-0449","OBJECT_ID":"2022-012W","EPOCH":"2026-02-04T07:38:46.787712","MEAN_MOTION":13.10370921,"ECCENTRICITY":0.00021463,"INCLINATION":87.8756,"RA_OF_ASC_NODE":62.7387,"ARG_OF_PERICENTER":83.5555,"MEAN_ANOMALY":276.5817,"EPHEMERIS_TYPE":0,"CLASSIFICATION_TYPE":"U","NORAD_CAT_ID":51642,"ELEMENT_SET_NO":999,"REV_AT_EPOCH":19190,"BSTAR":-0.00097809884,"MEAN_MOTION_DOT":-3.29e-6,"MEAN_MOTION_DDOT":0},{"OBJECT_NAME":"ONEWEB-0451","OBJECT_ID":"2022-012X","EPOCH":"2026-02-04T05:52:13.149696","MEAN_MOTION":13.17651913,"ECCENTRICITY":0.00019297,"INCLINATION":87.9105,"RA_OF_ASC_NODE":32.2433,"ARG_OF_PERICENTER":83.9498,"MEAN_ANOMALY":276.1854,"EPHEMERIS_TYPE":0,"CLASSIFICATION_TYPE":"U","NORAD_CAT_ID":51643,"ELEMENT_SET_NO":999,"REV_AT_EPOCH":19615,"BSTAR":0.00029957453,"MEAN_MOTION_DOT":1.29e-6,"MEAN_MOTION_DDOT":0},{"OBJECT_NAME":"ONEWEB-0452","OBJECT_ID":"2022-012Y","EPOCH":"2026-02-04T05:49:49.067328","MEAN_MOTION":13.17649848,"ECCENTRICITY":0.00018538,"INCLINATION":87.9094,"RA_OF_ASC_NODE":32.2937,"ARG_OF_PERICENTER":78.908,"MEAN_ANOMALY":281.226,"EPHEMERIS_TYPE":0,"CLASSIFICATION_TYPE":"U","NORAD_CAT_ID":51644,"ELEMENT_SET_NO":999,"REV_AT_EPOCH":19616,"BSTAR":0.00014529555,"MEAN_MOTION_DOT":6.9e-7,"MEAN_MOTION_DDOT":0},{"OBJECT_NAME":"ONEWEB-0456","OBJECT_ID":"2022-012AA","EPOCH":"2026-02-04T02:23:16.537344","MEAN_MOTION":13.10359855,"ECCENTRICITY":0.00015966,"INCLINATION":87.8768,"RA_OF_ASC_NODE":62.7578,"ARG_OF_PERICENTER":96.2035,"MEAN_ANOMALY":263.9275,"EPHEMERIS_TYPE":0,"CLASSIFICATION_TYPE":"U","NORAD_CAT_ID":51646,"ELEMENT_SET_NO":999,"REV_AT_EPOCH":19191,"BSTAR":0.00797822,"MEAN_MOTION_DOT":2.798e-5,"MEAN_MOTION_DDOT":0},{"OBJECT_NAME":"ONEWEB-0457","OBJECT_ID":"2022-012AB","EPOCH":"2026-02-04T01:49:48.794016","MEAN_MOTION":13.10370123,"ECCENTRICITY":0.00022915,"INCLINATION":87.8748,"RA_OF_ASC_NODE":62.8005,"ARG_OF_PERICENTER":95.9663,"MEAN_ANOMALY":264.1725,"EPHEMERIS_TYPE":0,"CLASSIFICATION_TYPE":"U","NORAD_CAT_ID":51647,"ELEMENT_SET_NO":999,"REV_AT_EPOCH":19191,"BSTAR":0.00046471066,"MEAN_MOTION_DOT":1.75e-6,"MEAN_MOTION_DDOT":0}]
